[{"OBJECT_NAME":"STARLINK-31830","OBJECT_ID":"2024-091S","EPOCH":"2026-03-09T07:20:07.250208","MEAN_MOTION":15.3019125,"ECCENTRICITY":0.00011634,"INCLINATION":53.1627,"RA_OF_ASC_NODE":28.808,"ARG_OF_PERICENTER":84.9013,"MEAN_ANOMALY":275.212,"EPHEMERIS_TYPE":0,"CLASSIFICATION_TYPE":"U","NORAD_CAT_ID":59769,"ELEMENT_SET_NO":999,"REV_AT_EPOCH":10294,"BSTAR":1.7515982e-5,"MEAN_MOTION_DOT":1.6e-6,"MEAN_MOTION_DDOT":0},{"OBJECT_NAME":"COSMOS 2251 DEB","OBJECT_ID":"1993-036AMV","EPOCH":"2026-03-09T05:38:06.550656","MEAN_MOTION":15.39543317,"ECCENTRICITY":0.00779257,"INCLINATION":73.9961,"RA_OF_ASC_NODE":355.5603,"ARG_OF_PERICENTER":37.2584,"MEAN_ANOMALY":111.9555,"EPHEMERIS_TYPE":0,"CLASSIFICATION_TYPE":"U","NORAD_CAT_ID":35602,"ELEMENT_SET_NO":999,"REV_AT_EPOCH":91420,"BSTAR":0.00072859847,"MEAN_MOTION_DOT":0.00031956,"MEAN_MOTION_DDOT":0}]
